[{"OBJECT_NAME":"STARLINK-31600","OBJECT_ID":"2024-057X","EPOCH":"2026-03-09T09:16:52.720320","MEAN_MOTION":15.27569261,"ECCENTRICITY":0.00021574,"INCLINATION":43.0013,"RA_OF_ASC_NODE":196.4876,"ARG_OF_PERICENTER":291.6953,"MEAN_ANOMALY":68.3669,"EPHEMERIS_TYPE":0,"CLASSIFICATION_TYPE":"U","NORAD_CAT_ID":59341,"ELEMENT_SET_NO":999,"REV_AT_EPOCH":10970,"BSTAR":-1.7263009e-5,"MEAN_MOTION_DOT":-7.37e-6,"MEAN_MOTION_DDOT":0},{"OBJECT_NAME":"OBJECT A","OBJECT_ID":"2025-013A","EPOCH":"2026-03-09T23:29:31.895232","MEAN_MOTION":15.29260221,"ECCENTRICITY":0.0010321,"INCLINATION":97.6364,"RA_OF_ASC_NODE":244.5149,"ARG_OF_PERICENTER":282.3775,"MEAN_ANOMALY":77.6309,"EPHEMERIS_TYPE":0,"CLASSIFICATION_TYPE":"U","NORAD_CAT_ID":62729,"ELEMENT_SET_NO":999,"REV_AT_EPOCH":6276,"BSTAR":0.0013206527,"MEAN_MOTION_DOT":0.00037616,"MEAN_MOTION_DDOT":0}]
